start=new Date('2023-02-24T00:00:00.000Z').valueOf();
sats=[{"ARG_OF_PERICENTER":"79.6543","ECCENTRICITY":"0.00009930","REV_AT_EPOCH":"5649","OBJECT_ID":"2022-017AX","EPHEMERIS_TYPE":"0","TLE_LINE2":"2 51813  53.2139 272.6831 0000993  79.6543 280.4561 15.08843155 56497","CLASSIFICATION_TYPE":"U","CENTER_NAME":"EARTH","ELEMENT_SET_NO":"999","SITE":"AFWTR","PERIOD":"95.437","DECAY_DATE":null,"MEAN_MOTION_DOT":"0.00000706","SEMIMAJOR_AXIS":"6917.871","OBJECT_NAME":"STARLINK-3552","NORAD_CAT_ID":"51813","BSTAR":"0.00006242400000","OBJECT_TYPE":"PAYLOAD","MEAN_MOTION":"15.08843155","FILE":"3828819","LAUNCH_DATE":"2022-02-25","RA_OF_ASC_NODE":"272.6831","TLE_LINE1":"1 51813U 22017AX  23054.56697008  .00000706  00000-0  62424-4 0  9990","REF_FRAME":"TEME","GP_ID":"226568707","INCLINATION":"53.2139","EPOCH":"2023-02-23T13:36:26.214912","MEAN_ELEMENT_THEORY":"SGP4","MEAN_MOTION_DDOT":"0.0000000000000","MEAN_ANOMALY":"280.4561","PERIAPSIS":"539.049","TIME_SYSTEM":"UTC","RCS_SIZE":"LARGE","APOAPSIS":"540.423","COUNTRY_CODE":"US"},{"TLE_LINE1":"1 51814U 22017AY  23054.71048136  .00003542  00000-0  24047-3 0  9999","REF_FRAME":"TEME","GP_ID":"226572505","INCLINATION":"53.2114","EPOCH":"2023-02-23T17:03:05.589504","RA_OF_ASC_NODE":"272.0159","LAUNCH_DATE":"2022-02-25","BSTAR":"0.00024047000000","OBJECT_TYPE":"PAYLOAD","FILE":"3828955","MEAN_MOTION":"15.08850242","COUNTRY_CODE":"US","TIME_SYSTEM":"UTC","RCS_SIZE":"LARGE","APOAPSIS":"541.055","PERIAPSIS":"538.373","MEAN_ELEMENT_THEORY":"SGP4","MEAN_MOTION_DDOT":"0.0000000000000","MEAN_ANOMALY":"292.7697","PERIOD":"95.437","CENTER_NAME":"EARTH","ELEMENT_SET_NO":"999","SITE":"AFWTR","REV_AT_EPOCH":"5663","OBJECT_ID":"2022-017AY","CLASSIFICATION_TYPE":"U","TLE_LINE2":"2 51814  53.2114 272.0159 0001938  67.3500 292.7697 15.08850242 56632","EPHEMERIS_TYPE":"0","ARG_OF_PERICENTER":"67.3500","ECCENTRICITY":"0.00019380","OBJECT_NAME":"STARLINK-3599","NORAD_CAT_ID":"51814","SEMIMAJOR_AXIS":"6917.849","MEAN_MOTION_DOT":"0.00003542","DECAY_DATE":null},{"COUNTRY_CODE":"US","RCS_SIZE":"LARGE","APOAPSIS":"540.740","TIME_SYSTEM":"UTC","PERIAPSIS":"538.710","MEAN_ANOMALY":"254.7540","MEAN_MOTION_DDOT":"0.0000000000000","MEAN_ELEMENT_THEORY":"SGP4","EPOCH":"2023-02-23T13:57:38.189664","INCLINATION":"53.2126","GP_ID":"226567708","REF_FRAME":"TEME","TLE_LINE1":"1 51815U 22017AZ  23054.58169201  .00014250  00000-0  91144-3 0  9992","RA_OF_ASC_NODE":"272.5926","LAUNCH_DATE":"2022-02-25","MEAN_MOTION":"15.08846625","FILE":"3828819","OBJECT_TYPE":"PAYLOAD","BSTAR":"0.00091144000000","NORAD_CAT_ID":"51815","OBJECT_NAME":"STARLINK-3604","SEMIMAJOR_AXIS":"6917.860","MEAN_MOTION_DOT":"0.00014250","DECAY_DATE":null,"PERIOD":"95.437","ELEMENT_SET_NO":"999","SITE":"AFWTR","CENTER_NAME":"EARTH","EPHEMERIS_TYPE":"0","TLE_LINE2":"2 51815  53.2126 272.5926 0001467 105.3614 254.7540 15.08846625 56498","CLASSIFICATION_TYPE":"U","OBJECT_ID":"2022-017AZ","REV_AT_EPOCH":"5649","ECCENTRICITY":"0.00014670","ARG_OF_PERICENTER":"105.3614"},{"DECAY_DATE":null,"MEAN_MOTION_DOT":"0.00001622","SEMIMAJOR_AXIS":"6917.891","OBJECT_NAME":"STARLINK-3603","NORAD_CAT_ID":"51816","ARG_OF_PERICENTER":"79.8839","ECCENTRICITY":"0.00010870","REV_AT_EPOCH":"5654","OBJECT_ID":"2022-017BA","TLE_LINE2":"2 51816  53.2153 272.6224 0001087  79.8839 280.2275 15.08836491 56548","CLASSIFICATION_TYPE":"U","EPHEMERIS_TYPE":"0","CENTER_NAME":"EARTH","ELEMENT_SET_NO":"999","SITE":"AFWTR","PERIOD":"95.438","MEAN_ELEMENT_THEORY":"SGP4","MEAN_MOTION_DDOT":"0.0000000000000","MEAN_ANOMALY":"280.2275","PERIAPSIS":"539.004","TIME_SYSTEM":"UTC","RCS_SIZE":"LARGE","APOAPSIS":"540.508","COUNTRY_CODE":"US","BSTAR":"0.00012000000000","OBJECT_TYPE":"PAYLOAD","FILE":"3828819","MEAN_MOTION":"15.08836491","LAUNCH_DATE":"2022-02-25","RA_OF_ASC_NODE":"272.6224","TLE_LINE1":"1 51816U 22017BA  23054.57433030  .00001622  00000-0  12000-3 0  9999","REF_FRAME":"TEME","INCLINATION":"53.2153","GP_ID":"226567958","EPOCH":"2023-02-23T13:47:02.137920"},{"CLASSIFICATION_TYPE":"U","TLE_LINE2":"2 51817  53.1897 135.5986 0001205  83.2337 276.8821 15.76714365 58516","EPHEMERIS_TYPE":"0","OBJECT_ID":"2022-017BB","REV_AT_EPOCH":"5851","ECCENTRICITY":"0.00012050","ARG_OF_PERICENTER":"83.2337","PERIOD":"91.329","SITE":"AFWTR","ELEMENT_SET_NO":"999","CENTER_NAME":"EARTH","MEAN_MOTION_DOT":"0.00001386","DECAY_DATE":null,"NORAD_CAT_ID":"51817","OBJECT_NAME":"STARLINK-3596","SEMIMAJOR_AXIS":"6717.894","LAUNCH_DATE":"2022-02-25","MEAN_MOTION":"15.76714365","FILE":"3828959","BSTAR":"0.00001247200000","OBJECT_TYPE":"PAYLOAD","EPOCH":"2023-02-23T12:01:38.023392","INCLINATION":"53.1897","GP_ID":"226572542","REF_FRAME":"TEME","TLE_LINE1":"1 51817U 22017BB  23054.50113453  .00001386  00000-0  12472-4 0  9998","RA_OF_ASC_NODE":"135.5986","PERIAPSIS":"338.950","MEAN_ANOMALY":"276.8821","MEAN_MOTION_DDOT":"0.0000000000000","MEAN_ELEMENT_THEORY":"SGP4","COUNTRY_CODE":"US","RCS_SIZE":"LARGE","APOAPSIS":"340.569","TIME_SYSTEM":"UTC"},{"ARG_OF_PERICENTER":"75.7939","ECCENTRICITY":"0.00013800","REV_AT_EPOCH":"5546","OBJECT_ID":"2022-022A","CLASSIFICATION_TYPE":"U","TLE_LINE2":"2 51852  53.2158 321.3082 0001380  75.7939 284.3206 15.08853043 55460","EPHEMERIS_TYPE":"0","CENTER_NAME":"EARTH","ELEMENT_SET_NO":"999","SITE":"AFETR","PERIOD":"95.437","DECAY_DATE":null,"MEAN_MOTION_DOT":"0.00008638","SEMIMAJOR_AXIS":"6917.841","NORAD_CAT_ID":"51852","OBJECT_NAME":"STARLINK-3542","BSTAR":"0.00055994000000","OBJECT_TYPE":"PAYLOAD","MEAN_MOTION":"15.08853043","FILE":"3829846","LAUNCH_DATE":"2022-03-03","RA_OF_ASC_NODE":"321.3082","GP_ID":"226593625","INCLINATION":"53.2158","TLE_LINE1":"1 51852U 22022A   23054.86781024  .00008638  00000-0  55994-3 0  9999","REF_FRAME":"TEME","EPOCH":"2023-02-23T20:49:38.804736","MEAN_MOTION_DDOT":"0.0000000000000","MEAN_ELEMENT_THEORY":"SGP4","MEAN_ANOMALY":"284.3206","PERIAPSIS":"538.751","TIME_SYSTEM":"UTC","RCS_SIZE":"LARGE","APOAPSIS":"540.660","COUNTRY_CODE":"US"},{"EPOCH":"2023-02-23T17:45:33.064992","GP_ID":"226593922","INCLINATION":"53.2151","TLE_LINE1":"1 51853U 22022B   23054.73996603  .00029858  00000-0  18854-2 0  9997","REF_FRAME":"TEME","RA_OF_ASC_NODE":"321.8898","LAUNCH_DATE":"2022-03-03","MEAN_MOTION":"15.08854564","FILE":"3829846","OBJECT_TYPE":"PAYLOAD","BSTAR":"0.00188540000000","COUNTRY_CODE":"US","RCS_SIZE":"LARGE","APOAPSIS":"540.712","TIME_SYSTEM":"UTC","PERIAPSIS":"538.689","MEAN_ANOMALY":"278.8186","MEAN_MOTION_DDOT":"0.0000000000000","MEAN_ELEMENT_THEORY":"SGP4","PERIOD":"95.437","SITE":"AFETR","ELEMENT_SET_NO":"999","CENTER_NAME":"EARTH","TLE_LINE2":"2 51853  53.2151 321.8898 0001462  81.2971 278.8186 15.08854564 55399","CLASSIFICATION_TYPE":"U","EPHEMERIS_TYPE":"0","REV_AT_EPOCH":"5539","OBJECT_ID":"2022-022B","ECCENTRICITY":"0.00014620","ARG_OF_PERICENTER":"81.2971","NORAD_CAT_ID":"51853","OBJECT_NAME":"STARLINK-3539","SEMIMAJOR_AXIS":"6917.836","MEAN_MOTION_DOT":"0.00029858","DECAY_DATE":null},{"EPHEMERIS_TYPE":"0","TLE_LINE2":"2 51854  53.2168 321.3217 0001256  81.4583 278.6551 15.08848290 55472","CLASSIFICATION_TYPE":"U","REV_AT_EPOCH":"5547","OBJECT_ID":"2022-022C","ECCENTRICITY":"0.00012560","ARG_OF_PERICENTER":"81.4583","PERIOD":"95.437","SITE":"AFETR","ELEMENT_SET_NO":"999","CENTER_NAME":"EARTH","MEAN_MOTION_DOT":"0.00005684","DECAY_DATE":null,"NORAD_CAT_ID":"51854","OBJECT_NAME":"STARLINK-3541","SEMIMAJOR_AXIS":"6917.855","LAUNCH_DATE":"2022-03-03","FILE":"3830070","MEAN_MOTION":"15.08848290","OBJECT_TYPE":"PAYLOAD","BSTAR":"0.00037485000000","EPOCH":"2023-02-23T20:44:20.760288","INCLINATION":"53.2168","GP_ID":"226598402","TLE_LINE1":"1 51854U 22022C   23054.86412917  .00005684  00000-0  37485-3 0  9996","REF_FRAME":"TEME","RA_OF_ASC_NODE":"321.3217","PERIAPSIS":"538.851","MEAN_ANOMALY":"278.6551","MEAN_MOTION_DDOT":"0.0000000000000","MEAN_ELEMENT_THEORY":"SGP4","COUNTRY_CODE":"US","RCS_SIZE":"LARGE","APOAPSIS":"540.589","TIME_SYSTEM":"UTC"},{"SEMIMAJOR_AXIS":"6917.903","NORAD_CAT_ID":"51855","OBJECT_NAME":"STARLINK-3545","DECAY_DATE":null,"MEAN_MOTION_DOT":"-0.00002802","SITE":"AFETR","ELEMENT_SET_NO":"999","CENTER_NAME":"EARTH","PERIOD":"95.438","ECCENTRICITY":"0.00039110","ARG_OF_PERICENTER":"14.6554","TLE_LINE2":"2 51855  53.2174 321.3688 0003911  14.6554 345.4550 15.08832446 55421","CLASSIFICATION_TYPE":"U","EPHEMERIS_TYPE":"0","REV_AT_EPOCH":"5542","OBJECT_ID":"2022-022D","RCS_SIZE":"LARGE","APOAPSIS":"542.474","TIME_SYSTEM":"UTC","COUNTRY_CODE":"US","MEAN_ANOMALY":"345.4550","MEAN_MOTION_DDOT":"0.0000000000000","MEAN_ELEMENT_THEORY":"SGP4","PERIAPSIS":"537.063","RA_OF_ASC_NODE":"321.3688","EPOCH":"2023-02-23T20:33:44.791488","INCLINATION":"53.2174","GP_ID":"226593636","TLE_LINE1":"1 51855U 22022D   23054.85676842 -.00002802  00000-0 -15796-3 0  9997","REF_FRAME":"TEME","MEAN_MOTION":"15.08832446","FILE":"3829847","OBJECT_TYPE":"PAYLOAD","BSTAR":"-0.00015796000000","LAUNCH_DATE":"2022-03-03"},{"DECAY_DATE":null,"MEAN_MOTION_DOT":"0.00025353","SEMIMAJOR_AXIS":"6917.885","OBJECT_NAME":"STARLINK-3568","NORAD_CAT_ID":"51856","ARG_OF_PERICENTER":"74.7788","ECCENTRICITY":"0.00016430","REV_AT_EPOCH":"5541","OBJECT_ID":"2022-022E","TLE_LINE2":"2 51856  53.2153 324.0168 0001643  74.7788 285.3386 15.08838630 55417","CLASSIFICATION_TYPE":"U","EPHEMERIS_TYPE":"0","CENTER_NAME":"EARTH","ELEMENT_SET_NO":"999","SITE":"AFETR","PERIOD":"95.438","MEAN_ELEMENT_THEORY":"SGP4","MEAN_MOTION_DDOT":"0.0000000000000","MEAN_ANOMALY":"285.3386","PERIAPSIS":"538.613","TIME_SYSTEM":"UTC","RCS_SIZE":"LARGE","APOAPSIS":"540.886","COUNTRY_CODE":"US","BSTAR":"0.00160540000000","OBJECT_TYPE":"PAYLOAD","MEAN_MOTION":"15.08838630","FILE":"3828819","LAUNCH_DATE":"2022-03-03","RA_OF_ASC_NODE":"324.0168","TLE_LINE1":"1 51856U 22022E   23054.26429948  .00025353  00000-0  16054-2 0  9997","REF_FRAME":"TEME","GP_ID":"226568212","INCLINATION":"53.2153","EPOCH":"2023-02-23T06:20:35.475072"}];
